{
  "norad_id": 58986,
  "name": "STARLINK-31229",
  "history": [
    {
      "epoch": "2026-03-28T14:25:39.043776Z",
      "apogee_km": 475.8966860745668,
      "perigee_km": 474.58083792826255,
      "latitude_deg": -1.5105776906454551e-05,
      "longitude_deg": 166.76785366587893,
      "height_km": 476.02841974502996,
      "semi_major_axis_km": 6853.375762001414,
      "eccentricity": 9.6e-05,
      "inclination_deg": 53.1607,
      "raan_deg": 209.1998,
      "arg_perigee_deg": 80.4699,
      "mean_anomaly_deg": 279.641,
      "mean_motion_rev_day": 15.30192065
    },
    {
      "epoch": "2026-03-29T01:24:01.204128Z",
      "apogee_km": 476.00329270154,
      "perigee_km": 474.46676669248336,
      "latitude_deg": -1.7667604000347403e-06,
      "longitude_deg": -0.3987091219633412,
      "height_km": 476.17525974728005,
      "semi_major_axis_km": 6853.372029697011,
      "eccentricity": 0.0001121,
      "inclination_deg": 53.162,
      "raan_deg": 207.0762,
      "arg_perigee_deg": 93.1143,
      "mean_anomaly_deg": 266.9986,
      "mean_motion_rev_day": 15.30193315
    },
    {
      "epoch": "2026-03-30T00:54:50.016960Z",
      "apogee_km": 476.2554586158003,
      "perigee_km": 474.2693434693774,
      "latitude_deg": 7.98001669939229e-06,
      "longitude_deg": 1.3831443026621482,
      "height_km": 475.9234438025644,
      "semi_major_axis_km": 6853.399401042589,
      "eccentricity": 0.0001449,
      "inclination_deg": 53.1598,
      "raan_deg": 202.5271,
      "arg_perigee_deg": 76.2035,
      "mean_anomaly_deg": 283.9127,
      "mean_motion_rev_day": 15.30184148
    },
    {
      "epoch": "2026-03-30T13:27:15.753600Z",
      "apogee_km": 476.28369778865545,
      "perigee_km": 474.21150842006045,
      "latitude_deg": 2.648944675067616e-05,
      "longitude_deg": 170.3339033850455,
      "height_km": 475.8704660403013,
      "semi_major_axis_km": 6853.384603104358,
      "eccentricity": 0.00015118,
      "inclination_deg": 53.16,
      "raan_deg": 200.1001,
      "arg_perigee_deg": 74.611,
      "mean_anomaly_deg": 285.5058,
      "mean_motion_rev_day": 15.30189104
    },
    {
      "epoch": "2026-03-31T00:25:37.210656Z",
      "apogee_km": 476.03786148979,
      "perigee_km": 474.4275937385901,
      "latitude_deg": -2.767665021231644e-05,
      "longitude_deg": 3.1691293854200717,
      "height_km": 476.1267401781467,
      "semi_major_axis_km": 6853.36972761419,
      "eccentricity": 0.00011748,
      "inclination_deg": 53.1605,
      "raan_deg": 197.9754,
      "arg_perigee_deg": 89.6977,
      "mean_anomaly_deg": 270.4158,
      "mean_motion_rev_day": 15.30194086
    },
    {
      "epoch": "2026-04-01T06:12:38.706048Z",
      "apogee_km": 475.7544095591129,
      "perigee_km": 474.76477909089226,
      "latitude_deg": 3.669556280983744e-05,
      "longitude_deg": -90.57582685417032,
      "height_km": 476.2651311778502,
      "semi_major_axis_km": 6853.396594325002,
      "eccentricity": 7.22e-05,
      "inclination_deg": 53.1609,
      "raan_deg": 192.2098,
      "arg_perigee_deg": 102.444,
      "mean_anomaly_deg": 257.6642,
      "mean_motion_rev_day": 15.30185088
    },
    {
      "epoch": "2026-04-02T16:41:47.166720Z",
      "apogee_km": 475.72798699875875,
      "perigee_km": 474.6437913176933,
      "latitude_deg": 2.245371789430589e-06,
      "longitude_deg": 104.04441938280529,
      "height_km": 476.1780575534429,
      "semi_major_axis_km": 6853.322889158226,
      "eccentricity": 7.91e-05,
      "inclination_deg": 53.1562,
      "raan_deg": 185.5316,
      "arg_perigee_deg": 99.9688,
      "mean_anomaly_deg": 260.1402,
      "mean_motion_rev_day": 15.30209773
    },
    {
      "epoch": "2026-04-02T16:41:47.167584Z",
      "apogee_km": 475.7282611316741,
      "perigee_km": 474.6435171847779,
      "latitude_deg": -1.4028154756393475e-06,
      "longitude_deg": 104.04441305453172,
      "height_km": 476.17810501010075,
      "semi_major_axis_km": 6853.322889158226,
      "eccentricity": 7.914e-05,
      "inclination_deg": 53.1562,
      "raan_deg": 185.5316,
      "arg_perigee_deg": 99.9688,
      "mean_anomaly_deg": 260.1402,
      "mean_motion_rev_day": 15.30209773
    },
    {
      "epoch": "2026-04-03T16:12:39.625632Z",
      "apogee_km": 476.3286423496829,
      "perigee_km": 474.3616929675645,
      "latitude_deg": 1.9653761526885733e-05,
      "longitude_deg": 105.8107445619479,
      "height_km": 476.3083111080737,
      "semi_major_axis_km": 6853.482167658623,
      "eccentricity": 0.0001435,
      "inclination_deg": 53.1573,
      "raan_deg": 180.9822,
      "arg_perigee_deg": 93.8248,
      "mean_anomaly_deg": 266.2917,
      "mean_motion_rev_day": 15.30156429
    },
    {
      "epoch": "2026-04-04T15:43:23.888640Z",
      "apogee_km": 476.4280346544856,
      "perigee_km": 473.915611639919,
      "latitude_deg": 2.0052437294614992e-05,
      "longitude_deg": 107.60889935551805,
      "height_km": 475.60472967828036,
      "semi_major_axis_km": 6853.308823147202,
      "eccentricity": 0.0001833,
      "inclination_deg": 53.159,
      "raan_deg": 176.4304,
      "arg_perigee_deg": 68.3007,
      "mean_anomaly_deg": 291.8189,
      "mean_motion_rev_day": 15.30214484
    },
    {
      "epoch": "2026-04-05T12:06:07.008192Z",
      "apogee_km": 476.36433184101224,
      "perigee_km": 474.2541557425493,
      "latitude_deg": -2.2278570299756857e-05,
      "longitude_deg": 157.15318060191788,
      "height_km": 476.31132204922295,
      "semi_major_axis_km": 6853.44624379178,
      "eccentricity": 0.00015395,
      "inclination_deg": 53.1596,
      "raan_deg": 172.4913,
      "arg_perigee_deg": 95.6798,
      "mean_anomaly_deg": 264.4378,
      "mean_motion_rev_day": 15.3016846
    },
    {
      "epoch": "2026-04-06T05:20:40.639776Z",
      "apogee_km": 476.46965909614664,
      "perigee_km": 473.8829445235124,
      "latitude_deg": -2.4227491082654187e-05,
      "longitude_deg": -105.53288540826077,
      "height_km": 476.787361179896,
      "semi_major_axis_km": 6853.31330180983,
      "eccentricity": 0.00018872,
      "inclination_deg": 53.1601,
      "raan_deg": 169.1535,
      "arg_perigee_deg": 123.4761,
      "mean_anomaly_deg": 236.642,
      "mean_motion_rev_day": 15.30212984
    },
    {
      "epoch": "2026-04-07T11:07:42.118752Z",
      "apogee_km": 476.21938327101634,
      "perigee_km": 474.23506019425713,
      "latitude_deg": 2.0722514045275712e-05,
      "longitude_deg": 160.72430748392065,
      "height_km": 476.27524328341514,
      "semi_major_axis_km": 6853.364221732637,
      "eccentricity": 0.00014477,
      "inclination_deg": 53.1601,
      "raan_deg": 163.39,
      "arg_perigee_deg": 98.7053,
      "mean_anomaly_deg": 261.4112,
      "mean_motion_rev_day": 15.3019593
    },
    {
      "epoch": "2026-04-08T10:38:30.226560Z",
      "apogee_km": 476.2160281793558,
      "perigee_km": 474.2983114227627,
      "latitude_deg": -3.682333165023494e-06,
      "longitude_deg": 162.50807764298563,
      "height_km": 476.1655247099426,
      "semi_major_axis_km": 6853.394169801059,
      "eccentricity": 0.00013991,
      "inclination_deg": 53.161,
      "raan_deg": 158.8399,
      "arg_perigee_deg": 90.6188,
      "mean_anomaly_deg": 269.4973,
      "mean_motion_rev_day": 15.301859
    },
    {
      "epoch": "2026-04-09T10:09:18.092448Z",
      "apogee_km": 476.1504735900535,
      "perigee_km": 474.32528279249345,
      "latitude_deg": -1.55674302678637e-05,
      "longitude_deg": 164.29076788174862,
      "height_km": 476.1014361531964,
      "semi_major_axis_km": 6853.374878191273,
      "eccentricity": 0.00013316,
      "inclination_deg": 53.1603,
      "raan_deg": 154.2877,
      "arg_perigee_deg": 87.8356,
      "mean_anomaly_deg": 272.2797,
      "mean_motion_rev_day": 15.30192361
    },
    {
      "epoch": "2026-04-11T20:09:16.413984Z",
      "apogee_km": 476.09392144746835,
      "perigee_km": 474.39839445419057,
      "latitude_deg": -1.6352749966435713e-05,
      "longitude_deg": 0.6900993135140355,
      "height_km": 476.0942573369132,
      "semi_major_axis_km": 6853.383157950829,
      "eccentricity": 0.0001237,
      "inclination_deg": 53.1598,
      "raan_deg": 143.062,
      "arg_perigee_deg": 86.6187,
      "mean_anomaly_deg": 273.4955,
      "mean_motion_rev_day": 15.30189588
    },
    {
      "epoch": "2026-04-12T19:40:07.195872Z",
      "apogee_km": 476.44521624277877,
      "perigee_km": 474.23634035483155,
      "latitude_deg": 5.1436255881396496e-05,
      "longitude_deg": 2.4623679297178067,
      "height_km": 476.2343991124445,
      "semi_major_axis_km": 6853.477778298805,
      "eccentricity": 0.00016115,
      "inclination_deg": 53.1598,
      "raan_deg": 138.5115,
      "arg_perigee_deg": 89.796,
      "mean_anomaly_deg": 270.3226,
      "mean_motion_rev_day": 15.30157899
    },
    {
      "epoch": "2026-04-14T18:41:40.822080Z",
      "apogee_km": 476.00923985266127,
      "perigee_km": 474.4466726426381,
      "latitude_deg": 7.253736388569004e-05,
      "longitude_deg": 6.039486630086848,
      "height_km": 476.01956295173625,
      "semi_major_axis_km": 6853.364956247649,
      "eccentricity": 0.000114,
      "inclination_deg": 53.1597,
      "raan_deg": 129.41,
      "arg_perigee_deg": 82.1567,
      "mean_anomaly_deg": 277.9564,
      "mean_motion_rev_day": 15.30195684
    },
    {
      "epoch": "2026-04-15T18:12:28.370880Z",
      "apogee_km": 475.9739417611636,
      "perigee_km": 474.4346813025941,
      "latitude_deg": 2.220451833211077e-05,
      "longitude_deg": 7.8247778426668235,
      "height_km": 476.0249886428827,
      "semi_major_axis_km": 6853.341311531878,
      "eccentricity": 0.0001123,
      "inclination_deg": 53.1593,
      "raan_deg": 124.8591,
      "arg_perigee_deg": 84.2184,
      "mean_anomaly_deg": 275.8945,
      "mean_motion_rev_day": 15.30203603
    }
  ]
}